[{"OBJECT_NAME":"ONEWEB-0548","OBJECT_ID":"2023-043E","EPOCH":"2026-03-09T22:45:16.867296","MEAN_MOTION":13.16593049,"ECCENTRICITY":0.00011605,"INCLINATION":87.9005,"RA_OF_ASC_NODE":248.5097,"ARG_OF_PERICENTER":104.2017,"MEAN_ANOMALY":255.9243,"EPHEMERIS_TYPE":0,"CLASSIFICATION_TYPE":"U","NORAD_CAT_ID":56050,"ELEMENT_SET_NO":999,"REV_AT_EPOCH":14590,"BSTAR":0.000216026,"MEAN_MOTION_DOT":9.5e-7,"MEAN_MOTION_DDOT":0},{"OBJECT_NAME":"DELTA 1 DEB","OBJECT_ID":"1975-052AS","EPOCH":"2026-03-09T11:09:05.967360","MEAN_MOTION":13.10716122,"ECCENTRICITY":0.03107443,"INCLINATION":99.5632,"RA_OF_ASC_NODE":70.885,"ARG_OF_PERICENTER":122.6015,"MEAN_ANOMALY":40.4292,"EPHEMERIS_TYPE":0,"CLASSIFICATION_TYPE":"U","NORAD_CAT_ID":21324,"ELEMENT_SET_NO":999,"REV_AT_EPOCH":65295,"BSTAR":0.0025978897,"MEAN_MOTION_DOT":1.122e-5,"MEAN_MOTION_DDOT":0}]
